*******************************************************************************
Ephemeris / WWW_USER Mon Jul 15 19:10:47 2024 Pasadena, USA      / Horizons    
*******************************************************************************
Target body name: (2018 RY7)                      {source: JPL#20}
Center body name: Earth (399)                     {source: DE441}
Center-site name: Gemini South Obs., Cerro Pachon
*******************************************************************************
Start time      : A.D. 2018-Nov-21 23:31:00.0000 UT      
Stop  time      : A.D. 2018-Nov-22 09:26:00.0000 UT      
Step-size       : 1 minutes
*******************************************************************************
Target pole/equ : undefined
Target radii    : undefined                                                    
Center geodetic : 289.2634, -30.2406227, 2.71233  {E-lon(deg),Lat(deg),Alt(km)}
Center cylindric: 289.2634,5517.21435,-3194.81213 {E-lon(deg),Dxy(km),Dz(km)}
Center pole/equ : ITRF93                          {East-longitude positive}
Center radii    : 6378.137, 6378.137, 6356.752 km {Equator_a, b, pole_c}       
Target primary  : Sun
Vis. interferer : MOON (R_eq= 1737.400) km        {source: DE441}
Rel. light bend : Sun                             {source: DE441}
Rel. lght bnd GM: 1.3271E+11 km^3/s^2                                          
Small-body perts: Yes                             {source: SB441-N16}
Atmos refraction: NO (AIRLESS)
RA format       : HMS
Time format     : CAL 
Calendar mode   : Mixed Julian/Gregorian
RTS-only print  : NO       
EOP file        : eop.240715.p241008                                           
EOP coverage    : DATA-BASED 1962-JAN-20 TO 2024-JUL-15. PREDICTS-> 2024-OCT-07
Units conversion: 1 au= 149597870.700 km, c= 299792.458 km/s, 1 day= 86400.0 s 
Table cut-offs 1: Elevation (-90.0deg=NO ),Airmass (>38.000=NO), Daylight (YES)
Table cut-offs 2: Solar elongation (  0.0,180.0=NO ),Local Hour Angle( 0.0=NO )
Table cut-offs 3: RA/DEC angular rate (     0.0=NO )                           
*******************************************************************************
Initial IAU76/J2000 heliocentric ecliptic osculating elements (au, days, deg.):
  EPOCH=  2458422.5 ! 2018-Oct-31.00 (TDB)         Residual RMS= .22459        
   EC= .1470549687381346   QR= .8667733479166969   TP= 2458516.8896767548      
   OM= 2.838668085760325   W=  136.9006026425241   IN= 13.35135890147074       
  Equivalent ICRF heliocentric cartesian coordinates (au, au/d):
   X= 8.791791513870114E-01  Y= 4.508422091141234E-01  Z= 3.244113040133835E-01
  VX=-1.085418916943652E-02 VY= 1.006005810562689E-02 VZ= 7.673980932675997E-03
Asteroid physical parameters (km, seconds, rotational period in hours):        
   GM= n.a.                RAD= n.a.               ROTPER= n.a.                
   H= 24.4                 G= .150                 B-V= n.a.                   
                           ALBEDO= n.a.            STYP= n.a.                  
*******************************************************************************
 Date__(UT)__HR:MN     R.A._________(ICRF)_________DEC
******************************************************
$$SOE
 2018-Nov-22 01:34  m  20 02 02.017016 +38 06 30.92646
 2018-Nov-22 01:35  m  20 02 01.952104 +38 06 31.31953
 2018-Nov-22 01:36  m  20 02 01.887249 +38 06 31.71248
 2018-Nov-22 01:37  m  20 02 01.822450 +38 06 32.10529
 2018-Nov-22 01:38  m  20 02 01.757708 +38 06 32.49798
 2018-Nov-22 01:39  m  20 02 01.693023 +38 06 32.89054
 2018-Nov-22 01:40  m  20 02 01.628394 +38 06 33.28298
 2018-Nov-22 01:41  m  20 02 01.563823 +38 06 33.67529
 2018-Nov-22 01:42  m  20 02 01.499309 +38 06 34.06748
 2018-Nov-22 01:43  m  20 02 01.434851 +38 06 34.45955
 2018-Nov-22 01:44  m  20 02 01.370451 +38 06 34.85150
 2018-Nov-22 01:45  m  20 02 01.306109 +38 06 35.24334
 2018-Nov-22 01:46  m  20 02 01.241823 +38 06 35.63506
 2018-Nov-22 01:47  m  20 02 01.177595 +38 06 36.02667
 2018-Nov-22 01:48  m  20 02 01.113424 +38 06 36.41817
 2018-Nov-22 01:49  m  20 02 01.049311 +38 06 36.80956
 2018-Nov-22 01:50  m  20 02 00.985256 +38 06 37.20085
 2018-Nov-22 01:51  m  20 02 00.921258 +38 06 37.59203
 2018-Nov-22 01:52  m  20 02 00.857317 +38 06 37.98310
 2018-Nov-22 01:53  m  20 02 00.793434 +38 06 38.37408
 2018-Nov-22 01:54  m  20 02 00.729609 +38 06 38.76495
 2018-Nov-22 01:55  m  20 02 00.665842 +38 06 39.15573
 2018-Nov-22 01:56  m  20 02 00.602133 +38 06 39.54641
 2018-Nov-22 01:57  m  20 02 00.538482 +38 06 39.93700
 2018-Nov-22 01:58  m  20 02 00.474888 +38 06 40.32750
 2018-Nov-22 01:59  m  20 02 00.411353 +38 06 40.71790
 2018-Nov-22 02:00  m  20 02 00.347876 +38 06 41.10822
 2018-Nov-22 02:01  m  20 02 00.284457 +38 06 41.49845
 2018-Nov-22 02:02  m  20 02 00.221096 +38 06 41.88859
 2018-Nov-22 02:03  m  20 02 00.157793 +38 06 42.27866
 2018-Nov-22 02:04  m  20 02 00.094548 +38 06 42.66864
 2018-Nov-22 02:05  m  20 02 00.031362 +38 06 43.05854
 2018-Nov-22 02:06  m  20 01 59.968234 +38 06 43.44836
 2018-Nov-22 02:07  m  20 01 59.905164 +38 06 43.83811
 2018-Nov-22 02:08  m  20 01 59.842153 +38 06 44.22779
 2018-Nov-22 02:09  m  20 01 59.779200 +38 06 44.61739
 2018-Nov-22 02:10  m  20 01 59.716306 +38 06 45.00693
 2018-Nov-22 02:11  m  20 01 59.653470 +38 06 45.39639
 2018-Nov-22 02:12  m  20 01 59.590693 +38 06 45.78579
 2018-Nov-22 02:13  m  20 01 59.527975 +38 06 46.17512
 2018-Nov-22 02:14  m  20 01 59.465315 +38 06 46.56440
 2018-Nov-22 02:15  m  20 01 59.402713 +38 06 46.95361
 2018-Nov-22 02:16  m  20 01 59.340170 +38 06 47.34276
 2018-Nov-22 02:17  m  20 01 59.277686 +38 06 47.73186
 2018-Nov-22 02:18  m  20 01 59.215261 +38 06 48.12090
 2018-Nov-22 02:19  m  20 01 59.152895 +38 06 48.50988
 2018-Nov-22 02:20  m  20 01 59.090587 +38 06 48.89882
 2018-Nov-22 02:21  m  20 01 59.028338 +38 06 49.28771
 2018-Nov-22 02:22  m  20 01 58.966148 +38 06 49.67654
 2018-Nov-22 02:23  m  20 01 58.904017 +38 06 50.06534
 2018-Nov-22 02:24  m  20 01 58.841944 +38 06 50.45409
 2018-Nov-22 02:25  m  20 01 58.779931 +38 06 50.84279
 2018-Nov-22 02:26  m  20 01 58.717976 +38 06 51.23146
 2018-Nov-22 02:27  m  20 01 58.656080 +38 06 51.62009
 2018-Nov-22 02:28  m  20 01 58.594244 +38 06 52.00868
 2018-Nov-22 02:29  m  20 01 58.532466 +38 06 52.39724
 2018-Nov-22 02:30  m  20 01 58.470747 +38 06 52.78576
 2018-Nov-22 02:31  m  20 01 58.409087 +38 06 53.17426
 2018-Nov-22 02:32  m  20 01 58.347486 +38 06 53.56272
 2018-Nov-22 02:33  m  20 01 58.285944 +38 06 53.95116
 2018-Nov-22 02:34  m  20 01 58.224462 +38 06 54.33957
 2018-Nov-22 02:35  m  20 01 58.163038 +38 06 54.72796
 2018-Nov-22 02:36  m  20 01 58.101673 +38 06 55.11633
 2018-Nov-22 02:37  m  20 01 58.040367 +38 06 55.50468
 2018-Nov-22 02:38  m  20 01 57.979120 +38 06 55.89301
 2018-Nov-22 02:39  m  20 01 57.917933 +38 06 56.28132
 2018-Nov-22 02:40  m  20 01 57.856804 +38 06 56.66962
 2018-Nov-22 02:41  m  20 01 57.795735 +38 06 57.05791
 2018-Nov-22 02:42  m  20 01 57.734724 +38 06 57.44619
 2018-Nov-22 02:43  m  20 01 57.673773 +38 06 57.83446
 2018-Nov-22 02:44  m  20 01 57.612880 +38 06 58.22273
 2018-Nov-22 02:45  m  20 01 57.552047 +38 06 58.61099
 2018-Nov-22 02:46  m  20 01 57.491272 +38 06 58.99924
 2018-Nov-22 02:47  m  20 01 57.430557 +38 06 59.38750
 2018-Nov-22 02:48  m  20 01 57.369901 +38 06 59.77575
 2018-Nov-22 02:49  m  20 01 57.309303 +38 07 00.16401
 2018-Nov-22 02:50  m  20 01 57.248765 +38 07 00.55228
 2018-Nov-22 02:51  m  20 01 57.188286 +38 07 00.94055
 2018-Nov-22 02:52  m  20 01 57.127866 +38 07 01.32883
 2018-Nov-22 02:53  m  20 01 57.067504 +38 07 01.71712
 2018-Nov-22 02:54  m  20 01 57.007202 +38 07 02.10542
 2018-Nov-22 02:55  m  20 01 56.946958 +38 07 02.49374
 2018-Nov-22 02:56  m  20 01 56.886774 +38 07 02.88207
 2018-Nov-22 02:57  m  20 01 56.826648 +38 07 03.27042
 2018-Nov-22 02:58  m  20 01 56.766582 +38 07 03.65879
 2018-Nov-22 02:59  m  20 01 56.706574 +38 07 04.04719
 2018-Nov-22 03:00  m  20 01 56.646625 +38 07 04.43560
 2018-Nov-22 03:01  m  20 01 56.586735 +38 07 04.82404
 2018-Nov-22 03:02  m  20 01 56.526904 +38 07 05.21251
 2018-Nov-22 03:03  m  20 01 56.467131 +38 07 05.60101
 2018-Nov-22 03:04  m  20 01 56.407418 +38 07 05.98954
 2018-Nov-22 03:05  m  20 01 56.347763 +38 07 06.37810
 2018-Nov-22 03:06  m  20 01 56.288166 +38 07 06.76669
 2018-Nov-22 03:07  m  20 01 56.228629 +38 07 07.15533
 2018-Nov-22 03:08  m  20 01 56.169150 +38 07 07.54400
 2018-Nov-22 03:09  m  20 01 56.109730 +38 07 07.93271
 2018-Nov-22 03:10  m  20 01 56.050368 +38 07 08.32146
 2018-Nov-22 03:11  m  20 01 55.991065 +38 07 08.71026
 2018-Nov-22 03:12  m  20 01 55.931820 +38 07 09.09911
 2018-Nov-22 03:13  m  20 01 55.872634 +38 07 09.48800
 2018-Nov-22 03:14  m  20 01 55.813507 +38 07 09.87694
 2018-Nov-22 03:15  m  20 01 55.754438 +38 07 10.26593
 2018-Nov-22 03:16  m  20 01 55.695427 +38 07 10.65498
 2018-Nov-22 03:17  m  20 01 55.636475 +38 07 11.04408
 2018-Nov-22 03:18  m  20 01 55.577580 +38 07 11.43323
 2018-Nov-22 03:19  m  20 01 55.518745 +38 07 11.82245
 2018-Nov-22 03:20  m  20 01 55.459967 +38 07 12.21173
 2018-Nov-22 03:21  m  20 01 55.401248 +38 07 12.60107
 2018-Nov-22 03:22  m  20 01 55.342586 +38 07 12.99047
 2018-Nov-22 03:23  m  20 01 55.283983 +38 07 13.37995
 2018-Nov-22 03:24  m  20 01 55.225438 +38 07 13.76948
 2018-Nov-22 03:25  m  20 01 55.166951 +38 07 14.15909
 2018-Nov-22 03:26  m  20 01 55.108522 +38 07 14.54877
 2018-Nov-22 03:27  m  20 01 55.050150 +38 07 14.93853
 2018-Nov-22 03:28  m  20 01 54.991837 +38 07 15.32836
 2018-Nov-22 03:29  m  20 01 54.933581 +38 07 15.71827
 2018-Nov-22 03:30  m  20 01 54.875384 +38 07 16.10825
 2018-Nov-22 03:31  m  20 01 54.817243 +38 07 16.49832
 2018-Nov-22 03:32  m  20 01 54.759161 +38 07 16.88847
 2018-Nov-22 03:33  m  20 01 54.701136 +38 07 17.27870
 2018-Nov-22 03:34  m  20 01 54.643168 +38 07 17.66903
 2018-Nov-22 03:35  m  20 01 54.585258 +38 07 18.05944
 2018-Nov-22 03:36  m  20 01 54.527406 +38 07 18.44994
